start=new Date('2021-12-28T00:00:00.000Z').valueOf();
sats=[{"ARG_OF_PERICENTER":"62.4353","MEAN_MOTION_DDOT":"0.0000000000000","RCS_SIZE":"LARGE","ECCENTRICITY":"0.00015830","TIME_SYSTEM":"UTC","BSTAR":"0.00008064200000","EPOCH":"2021-12-27T16:45:39.189600","OBJECT_TYPE":"PAYLOAD","PERIAPSIS":"546.133","NORAD_CAT_ID":"46779","SEMIMAJOR_AXIS":"6925.364","MEAN_ANOMALY":"297.6797","CENTER_NAME":"EARTH","COUNTRY_CODE":"US","INCLINATION":"53.0555","EPHEMERIS_TYPE":"0","APOAPSIS":"548.326","REV_AT_EPOCH":"6575","TLE_LINE1":"1 46779U 20074AS  21361.69837025  .00000920  00000-0  80642-4 0  9994","RA_OF_ASC_NODE":"353.4803","MEAN_MOTION":"15.06394826","OBJECT_ID":"2020-074AS","OBJECT_NAME":"STARLINK-1798","MEAN_ELEMENT_THEORY":"SGP4","DECAY_DATE":null,"REF_FRAME":"TEME","FILE":"3253114","MEAN_MOTION_DOT":"0.00000920","TLE_LINE2":"2 46779  53.0555 353.4803 0001583  62.4353 297.6797 15.06394826 65758","PERIOD":"95.592","CLASSIFICATION_TYPE":"U","SITE":"AFETR","ELEMENT_SET_NO":"999","GP_ID":"192603168","LAUNCH_DATE":"2020-10-24"},{"CENTER_NAME":"EARTH","COUNTRY_CODE":"US","INCLINATION":"53.0565","APOAPSIS":"548.394","EPHEMERIS_TYPE":"0","RA_OF_ASC_NODE":"353.5351","TLE_LINE1":"1 46780U 20074AT  21361.68732499  .00000347  00000-0  42209-4 0  9994","REV_AT_EPOCH":"6575","OBJECT_ID":"2020-074AT","MEAN_MOTION":"15.06387409","OBJECT_NAME":"STARLINK-1832","ARG_OF_PERICENTER":"58.4961","MEAN_MOTION_DDOT":"0.0000000000000","RCS_SIZE":"LARGE","ECCENTRICITY":"0.00016490","TIME_SYSTEM":"UTC","BSTAR":"0.00004220900000","EPOCH":"2021-12-27T16:29:44.879136","PERIAPSIS":"546.110","OBJECT_TYPE":"PAYLOAD","MEAN_ANOMALY":"301.6189","SEMIMAJOR_AXIS":"6925.387","NORAD_CAT_ID":"46780","MEAN_MOTION_DOT":"0.00000347","TLE_LINE2":"2 46780  53.0565 353.5351 0001649  58.4961 301.6189 15.06387409 65753","PERIOD":"95.593","CLASSIFICATION_TYPE":"U","SITE":"AFETR","ELEMENT_SET_NO":"999","GP_ID":"192603416","LAUNCH_DATE":"2020-10-24","MEAN_ELEMENT_THEORY":"SGP4","DECAY_DATE":null,"REF_FRAME":"TEME","FILE":"3253114"},{"OBJECT_ID":"2020-074AU","MEAN_MOTION":"15.06396729","OBJECT_NAME":"STARLINK-1834","APOAPSIS":"548.223","EPHEMERIS_TYPE":"0","CENTER_NAME":"EARTH","COUNTRY_CODE":"US","INCLINATION":"53.0553","TLE_LINE1":"1 46781U 20074AU  21361.70482261  .00002961  00000-0  21762-3 0  9991","RA_OF_ASC_NODE":"3.4599","REV_AT_EPOCH":"6562","OBJECT_TYPE":"PAYLOAD","PERIAPSIS":"546.224","EPOCH":"2021-12-27T16:54:56.673504","SEMIMAJOR_AXIS":"6925.359","MEAN_ANOMALY":"285.4429","NORAD_CAT_ID":"46781","ARG_OF_PERICENTER":"74.6719","MEAN_MOTION_DDOT":"0.0000000000000","BSTAR":"0.00021762000000","TIME_SYSTEM":"UTC","RCS_SIZE":"LARGE","ECCENTRICITY":"0.00014430","GP_ID":"192604665","LAUNCH_DATE":"2020-10-24","TLE_LINE2":"2 46781  53.0553   3.4599 0001443  74.6719 285.4429 15.06396729 65626","MEAN_MOTION_DOT":"0.00002961","SITE":"AFETR","ELEMENT_SET_NO":"999","PERIOD":"95.592","CLASSIFICATION_TYPE":"U","FILE":"3253114","MEAN_ELEMENT_THEORY":"SGP4","DECAY_DATE":null,"REF_FRAME":"TEME"},{"REF_FRAME":"TEME","DECAY_DATE":null,"MEAN_ELEMENT_THEORY":"SGP4","FILE":"3253114","MEAN_MOTION_DOT":"-0.00000040","TLE_LINE2":"2 46782  53.0534 353.5776 0001599  65.9217 294.1939 15.06386821 65759","PERIOD":"95.593","CLASSIFICATION_TYPE":"U","SITE":"AFETR","ELEMENT_SET_NO":"999","GP_ID":"192604412","LAUNCH_DATE":"2020-10-24","ARG_OF_PERICENTER":"65.9217","MEAN_MOTION_DDOT":"0.0000000000000","ECCENTRICITY":"0.00015990","RCS_SIZE":"LARGE","BSTAR":"0.00001622500000","TIME_SYSTEM":"UTC","EPOCH":"2021-12-27T16:13:49.305504","OBJECT_TYPE":"PAYLOAD","PERIAPSIS":"546.147","SEMIMAJOR_AXIS":"6925.389","MEAN_ANOMALY":"294.1939","NORAD_CAT_ID":"46782","INCLINATION":"53.0534","CENTER_NAME":"EARTH","COUNTRY_CODE":"US","EPHEMERIS_TYPE":"0","APOAPSIS":"548.361","TLE_LINE1":"1 46782U 20074AV  21361.67626511 -.00000040  00000-0  16225-4 0  9992","RA_OF_ASC_NODE":"353.5776","REV_AT_EPOCH":"6575","MEAN_MOTION":"15.06386821","OBJECT_ID":"2020-074AV","OBJECT_NAME":"STARLINK-1835"},{"CENTER_NAME":"EARTH","COUNTRY_CODE":"US","INCLINATION":"53.0546","EPHEMERIS_TYPE":"0","APOAPSIS":"548.488","TLE_LINE1":"1 46783U 20074AW  21361.69100412 -.00000231  00000-0  33918-5 0  9993","RA_OF_ASC_NODE":"353.5237","REV_AT_EPOCH":"6575","MEAN_MOTION":"15.06390637","OBJECT_ID":"2020-074AW","OBJECT_NAME":"STARLINK-1851","MEAN_MOTION_DDOT":"0.0000000000000","ARG_OF_PERICENTER":"63.6772","RCS_SIZE":"LARGE","ECCENTRICITY":"0.00017990","BSTAR":"0.00000339180000","TIME_SYSTEM":"UTC","EPOCH":"2021-12-27T16:35:02.755968","PERIAPSIS":"545.996","OBJECT_TYPE":"PAYLOAD","SEMIMAJOR_AXIS":"6925.377","MEAN_ANOMALY":"296.4402","NORAD_CAT_ID":"46783","MEAN_MOTION_DOT":"-0.00000231","TLE_LINE2":"2 46783  53.0546 353.5237 0001799  63.6772 296.4402 15.06390637 65758","PERIOD":"95.593","CLASSIFICATION_TYPE":"U","ELEMENT_SET_NO":"999","SITE":"AFETR","GP_ID":"192603669","LAUNCH_DATE":"2020-10-24","DECAY_DATE":null,"MEAN_ELEMENT_THEORY":"SGP4","REF_FRAME":"TEME","FILE":"3253114"},{"MEAN_ANOMALY":"302.4019","SEMIMAJOR_AXIS":"6925.354","NORAD_CAT_ID":"46784","OBJECT_TYPE":"PAYLOAD","PERIAPSIS":"546.145","EPOCH":"2021-12-27T16:40:20.834976","TIME_SYSTEM":"UTC","BSTAR":"0.00020069000000","ECCENTRICITY":"0.00015500","RCS_SIZE":"LARGE","ARG_OF_PERICENTER":"57.7120","MEAN_MOTION_DDOT":"0.0000000000000","OBJECT_NAME":"STARLINK-1882","OBJECT_ID":"2020-074AX","MEAN_MOTION":"15.06398331","RA_OF_ASC_NODE":"353.4954","TLE_LINE1":"1 46784U 20074AX  21361.69468559  .00002709  00000-0  20069-3 0  9995","REV_AT_EPOCH":"6575","EPHEMERIS_TYPE":"0","APOAPSIS":"548.292","INCLINATION":"53.0571","CENTER_NAME":"EARTH","COUNTRY_CODE":"US","FILE":"3253114","REF_FRAME":"TEME","MEAN_ELEMENT_THEORY":"SGP4","DECAY_DATE":null,"LAUNCH_DATE":"2020-10-24","GP_ID":"192603917","ELEMENT_SET_NO":"999","SITE":"AFETR","PERIOD":"95.592","CLASSIFICATION_TYPE":"U","TLE_LINE2":"2 46784  53.0571 353.4954 0001550  57.7120 302.4019 15.06398331 65759","MEAN_MOTION_DOT":"0.00002709"},{"FILE":"3253114","MEAN_ELEMENT_THEORY":"SGP4","DECAY_DATE":null,"REF_FRAME":"TEME","GP_ID":"192604165","LAUNCH_DATE":"2020-10-24","TLE_LINE2":"2 46785  53.0551 352.9832 0002673  46.4848 313.6362 15.06399309 65779","MEAN_MOTION_DOT":"0.00001107","ELEMENT_SET_NO":"999","SITE":"AFETR","PERIOD":"95.592","CLASSIFICATION_TYPE":"U","PERIAPSIS":"545.365","OBJECT_TYPE":"PAYLOAD","EPOCH":"2021-12-27T19:30:11.918016","SEMIMAJOR_AXIS":"6925.351","NORAD_CAT_ID":"46785","MEAN_ANOMALY":"313.6362","MEAN_MOTION_DDOT":"0.0000000000000","ARG_OF_PERICENTER":"46.4848","BSTAR":"0.00009324000000","TIME_SYSTEM":"UTC","RCS_SIZE":"LARGE","ECCENTRICITY":"0.00026730","MEAN_MOTION":"15.06399309","OBJECT_ID":"2020-074AY","OBJECT_NAME":"STARLINK-1883","APOAPSIS":"549.067","EPHEMERIS_TYPE":"0","CENTER_NAME":"EARTH","COUNTRY_CODE":"US","INCLINATION":"53.0551","RA_OF_ASC_NODE":"352.9832","TLE_LINE1":"1 46785U 20074AY  21361.81263794  .00001107  00000-0  93240-4 0  9997","REV_AT_EPOCH":"6577"},{"BSTAR":"0.00001141100000","TIME_SYSTEM":"UTC","RCS_SIZE":"LARGE","ECCENTRICITY":"0.00024760","ARG_OF_PERICENTER":"167.2902","MEAN_MOTION_DDOT":"0.0000000000000","SEMIMAJOR_AXIS":"6925.381","MEAN_ANOMALY":"192.8150","NORAD_CAT_ID":"46786","PERIAPSIS":"545.531","OBJECT_TYPE":"PAYLOAD","EPOCH":"2021-12-27T22:12:04.798656","RA_OF_ASC_NODE":"332.4594","TLE_LINE1":"1 46786U 20074AZ  21361.92505554 -.00000112  00000-0  11411-4 0  9999","REV_AT_EPOCH":"6607","EPHEMERIS_TYPE":"0","APOAPSIS":"548.961","COUNTRY_CODE":"US","CENTER_NAME":"EARTH","INCLINATION":"53.0552","OBJECT_NAME":"STARLINK-1893","MEAN_MOTION":"15.06389370","OBJECT_ID":"2020-074AZ","FILE":"3253114","MEAN_ELEMENT_THEORY":"SGP4","DECAY_DATE":null,"REF_FRAME":"TEME","SITE":"AFETR","ELEMENT_SET_NO":"999","PERIOD":"95.593","CLASSIFICATION_TYPE":"U","TLE_LINE2":"2 46786  53.0552 332.4594 0002476 167.2902 192.8150 15.06389370 66076","MEAN_MOTION_DOT":"-0.00000112","LAUNCH_DATE":"2020-10-24","GP_ID":"192604913"},{"ARG_OF_PERICENTER":"147.3736","MEAN_MOTION_DDOT":"0.0000000000000","RCS_SIZE":"LARGE","ECCENTRICITY":"0.00031550","BSTAR":"0.00010840000000","TIME_SYSTEM":"UTC","EPOCH":"2021-12-27T22:01:28.140384","OBJECT_TYPE":"PAYLOAD","PERIAPSIS":"545.029","NORAD_CAT_ID":"46787","SEMIMAJOR_AXIS":"6925.349","MEAN_ANOMALY":"212.7448","COUNTRY_CODE":"US","CENTER_NAME":"EARTH","INCLINATION":"53.0557","EPHEMERIS_TYPE":"0","APOAPSIS":"549.399","REV_AT_EPOCH":"6607","TLE_LINE1":"1 46787U 20074BA  21361.91768681  .00001333  00000-0  10840-3 0  9990","RA_OF_ASC_NODE":"332.4902","OBJECT_ID":"2020-074BA","MEAN_MOTION":"15.06399932","OBJECT_NAME":"STARLINK-1899","DECAY_DATE":null,"MEAN_ELEMENT_THEORY":"SGP4","REF_FRAME":"TEME","FILE":"3253114","MEAN_MOTION_DOT":"0.00001333","TLE_LINE2":"2 46787  53.0557 332.4902 0003155 147.3736 212.7448 15.06399932 66071","PERIOD":"95.592","CLASSIFICATION_TYPE":"U","SITE":"AFETR","ELEMENT_SET_NO":"999","GP_ID":"192603169","LAUNCH_DATE":"2020-10-24"},{"OBJECT_NAME":"STARLINK-1929","MEAN_MOTION":"15.06394274","OBJECT_ID":"2020-074BB","TLE_LINE1":"1 46788U 20074BB  21361.91031050  .00002100  00000-0  15987-3 0  9994","REV_AT_EPOCH":"6607","RA_OF_ASC_NODE":"332.5417","INCLINATION":"53.0552","CENTER_NAME":"EARTH","COUNTRY_CODE":"US","EPHEMERIS_TYPE":"0","APOAPSIS":"549.196","NORAD_CAT_ID":"46788","SEMIMAJOR_AXIS":"6925.366","MEAN_ANOMALY":"164.8918","EPOCH":"2021-12-27T21:50:50.827200","PERIAPSIS":"545.266","OBJECT_TYPE":"PAYLOAD","ECCENTRICITY":"0.00028370","RCS_SIZE":"LARGE","BSTAR":"0.00015987000000","TIME_SYSTEM":"UTC","ARG_OF_PERICENTER":"195.1986","MEAN_MOTION_DDOT":"0.0000000000000","LAUNCH_DATE":"2020-10-24","GP_ID":"192603417","PERIOD":"95.593","CLASSIFICATION_TYPE":"U","SITE":"AFETR","ELEMENT_SET_NO":"999","MEAN_MOTION_DOT":"0.00002100","TLE_LINE2":"2 46788  53.0552 332.5417 0002837 195.1986 164.8918 15.06394274 66076","REF_FRAME":"TEME","DECAY_DATE":null,"MEAN_ELEMENT_THEORY":"SGP4","FILE":"3253114"}];
